OBJECT C                
1 57582U 23117C   25021.16418086  .00016473  00000+0  71644-3 0  9990
2 57582  97.4620  96.8975 0008284 251.3064 108.7273 15.22307479 80279
